GNOMES-1                
1 46266U 20059B   26068.53916665  .00004080  00000+0  33422-3 0  9991
2 46266  97.8057 278.7760 0005451 357.8604   2.2595 14.99848479300657
STARLINK-6221           
1 56484U 23064AN  26068.57220272  .00000456  00000+0  46007-4 0  9996
2 56484  69.9990 124.6773 0003403 267.1667  92.9103 14.98334735155716
